#aV2012 10 30  0  0  0.00000000     288 DD+AD WGS84 FIT  NGA
## 1712 172800.00000000   300.00000000 56230 0.0000000000000
+   31     1  2  3  4  5  6  7  8  9 10 11 12 13 14 15 16 17
+         18 19 20 21 22 23 24 25 26 28 29 30 31 32  0  0  0
+          0  0  0  0  0  0  0  0  0  0  0  0  0  0  0  0  0
+          0  0  0  0  0  0  0  0  0  0  0  0  0  0  0  0  0
+          0  0  0  0  0  0  0  0  0  0  0  0  0  0  0  0  0
++         2  2  2  2  2  2  2  2  2  2  2  2  2  2  2  2  2
++         2  2  2  2  2  2  2  2  2  2  2  2  2  2  2  0  0
++         0  0  0  0  0  0  0  0  0  0  0  0  0  0  0  0  0
++         0  0  0  0  0  0  0  0  0  0  0  0  0  0  0  0  0
++         0  0  0  0  0  0  0  0  0  0  0  0  0  0  0  0  0
%c cc cc ccc ccc cccc cccc cccc cccc ccccc ccccc ccccc ccccc
%c cc cc ccc ccc cccc cccc cccc cccc ccccc ccccc ccccc ccccc
%f  0.0000000  0.000000000  0.00000000000  0.000000000000000
%f  0.0000000  0.000000000  0.00000000000  0.000000000000000
%i    0    0    0    0      0      0      0      0         0
%i    0    0    0    0      0      0      0      0         0
/*      NGA, ST. LOUIS,MO.                                  
/*   EPHEMERIS COMPUTED FROM  1 DAYS OF DATA
/*   EPOCHA SMOOTHER  
/* CCCCCCCCCCCCCCCCCCCCCCCCCCCCCCCCCCCCCCCCCCCCCCCCCCCCCCCCC
*  2012 10 30 10 45  0.00000000                                                 
P  1   7924.864971 -18936.587554 -16844.249702    280.099708                    
V  1  19055.134497  -9850.758797  20119.923209      0.017576                    
P  2 -22165.903526  14105.890579   -462.169671    407.456095                    
V  2  -1524.985937  -3750.044033 -31577.327286      0.011227                    
P  3  10900.203399 -15418.072410  18088.984852    121.518033                    
V  3   6352.440067  23421.504606  15947.843246      0.051241                    
P  4 -22917.329271   2562.188315 -13710.418522     31.290967                    
V  4  12983.173272 -11095.478530 -23959.213970      0.112270                    
P  5 -16385.586271   7231.977669  19633.533296   -363.117225                    
V  5 -21522.299624 -12727.466098 -13117.911877     -0.026503                    
P  6  14174.074386  -9237.125287  20504.332397    471.438721                    
V  6   3713.504703  25729.770326   9390.998044     -0.100712                    
P  7  -7669.817846 -12779.063812  22021.312964    139.520334                    
V  7  23886.627262 -14271.117893   -239.537698      0.045019                    
P  8 -18854.748213  -4102.320551  18611.432808      2.610212                    
V  8  20524.201228 -10694.314896  17955.184291      0.001504                    
P  9 -12103.741318  19134.799686 -14484.027272    196.104783                    
V  9 -15393.733069   8194.249722  24568.326860      0.027729                    
P 10 -24567.378886  -7996.640243   6756.874091    -56.848771                    
V 10  -6368.983928  -6779.645246 -29571.815179     -0.012425                    
P 11   9519.914733 -22765.372919  -9853.249964   -318.038607                    
V 11  11542.841153  -6061.893904  26586.477972     -0.039016                    
P 12   1613.070565  16729.114239 -20634.096782     98.920408                    
V 12 -23020.084568 -12205.573795 -11521.004869      0.020440                    
P 13  -5319.257565 -23878.248345  10066.439118    170.817303                    
V 13   2729.550474 -12848.631770 -28763.494110     -0.026604                    
P 14  13573.648794   9689.232538 -20510.389630    215.825164                    
V 14  -1581.088692  26372.551838  11161.790900      0.007160                    
P 15  -5250.166619  24184.539693   9313.248196    -98.447932                    
V 15  -3968.668781 -11713.595968  28387.990236     -0.008759                    
P 16  16464.349858  -5857.036339  20093.263910   -248.783660                    
V 16  21496.454379  13492.862432 -13371.408311     -0.005969                    
P 17 -14208.250817  -8970.184289 -20442.017145     83.241071                    
V 17    834.059196 -26307.797131  10626.972241     -0.034877                    
P 18  18997.028455  17115.780518   8209.647979    222.166990                    
V 18 -10191.776980  -1864.720504  28461.313312      0.018439                    
P 19   8761.387111 -22345.345864  10844.938906   -317.579082                    
V 19   2030.306012  14149.738539  27721.214638     -0.034648                    
P 20  -3942.118981 -17862.890652 -19444.306748     71.920249                    
V 20  22770.464275   8985.640532 -12907.452750      0.010544                    
P 21  12096.356146  11210.445165  21399.980665   -259.079583                    
V 21 -21938.106806  14021.781319   4619.526242     -0.023556                    
P 22  24493.142754   9311.603124  -4554.276100    150.278376                    
V 22   3539.903403   6123.316095  30182.480939      0.008189                    
P 23    854.922977 -26242.121799  -2135.214701    149.139127                    
V 23   3301.201192   2734.190533 -31793.899319     -0.038859                    
P 24 -22941.747816   3507.723397  13399.970680      3.219035                    
V 24  12964.018425 -10722.023620  25009.383206      0.016285                    
P 25  14164.455385  17881.737818 -13697.590495     48.743935                    
V 25 -16221.456967  -6258.445884 -24950.571394      0.017403                    
P 26 -12342.758084  15067.128528  17266.305003   -228.090344                    
V 26   -501.437658 -23314.335273  19641.164858      0.135798                    
P 28 -23219.104187 -13029.763888  -1068.703127    199.870764                    
V 28   -713.073169  -2772.522138  32025.076504      0.035551                    
P 29   5131.352379  24936.448231   7694.949184    371.619451                    
V 29  -2583.731989   9667.714257 -29760.273589      0.040541                    
P 30  23501.037073    516.613045  11986.325860   -342.147680                    
V 30  13713.939823   8190.755177 -26480.485722      0.163807                    
P 31  23640.297747  -5770.948995 -10750.625369    283.786501                    
V 31 -10951.522983   8619.532809 -27961.587624      0.022999                    
P 32   6573.153646 -13974.979063 -21451.310448   -503.153990                    
V 32  23264.016177  14990.373176  -2118.783311     -0.036353                    
EOF
